[
  {
    "OBJECT_NAME": "STARLINK-4172",
    "OBJECT_ID": "2022-086AU",
    "EPOCH": "2023-02-11T20:03:13.000896",
    "MEAN_MOTION": 15.08857679,
    "ECCENTRICITY": 0.0001093,
    "INCLINATION": 53.2154,
    "RA_OF_ASC_NODE": 180.3193,
    "ARG_OF_PERICENTER": 94.0169,
    "MEAN_ANOMALY": 266.0948,
    "EPHEMERIS_TYPE": 0,
    "CLASSIFICATION_TYPE": "U",
    "NORAD_CAT_ID": 53284,
    "ELEMENT_SET_NO": 999,
    "REV_AT_EPOCH": 3183,
    "BSTAR": 0.00065437,
    "MEAN_MOTION_DOT": 0.00010147,
    "MEAN_MOTION_DDOT": 0
  },
  {
    "OBJECT_NAME": "STARLINK-4173",
    "OBJECT_ID": "2022-086AV",
    "EPOCH": "2023-02-11T19:36:43.792992",
    "MEAN_MOTION": 15.08838713,
    "ECCENTRICITY": 0.0001232,
    "INCLINATION": 53.2172,
    "RA_OF_ASC_NODE": 180.4028,
    "ARG_OF_PERICENTER": 103.8435,
    "MEAN_ANOMALY": 256.2694,
    "EPHEMERIS_TYPE": 0,
    "CLASSIFICATION_TYPE": "U",
    "NORAD_CAT_ID": 53285,
    "ELEMENT_SET_NO": 999,
    "REV_AT_EPOCH": 3182,
    "BSTAR": 0.00092973,
    "MEAN_MOTION_DOT": 0.00014539,
    "MEAN_MOTION_DDOT": 0
  },
  {
    "OBJECT_NAME": "STARLINK-4165",
    "OBJECT_ID": "2022-086AW",
    "EPOCH": "2023-02-11T18:11:56.524704",
    "MEAN_MOTION": 15.08839471,
    "ECCENTRICITY": 0.0001041,
    "INCLINATION": 53.2176,
    "RA_OF_ASC_NODE": 180.6646,
    "ARG_OF_PERICENTER": 97.9998,
    "MEAN_ANOMALY": 262.1113,
    "EPHEMERIS_TYPE": 0,
    "CLASSIFICATION_TYPE": "U",
    "NORAD_CAT_ID": 53286,
    "ELEMENT_SET_NO": 999,
    "REV_AT_EPOCH": 3181,
    "BSTAR": 6.4328e-5,
    "MEAN_MOTION_DOT": 7.36e-6,
    "MEAN_MOTION_DDOT": 0
  },
  {
    "OBJECT_NAME": "STARLINK-4107",
    "OBJECT_ID": "2022-086AX",
    "EPOCH": "2023-02-11T17:50:44.519712",
    "MEAN_MOTION": 15.08863206,
    "ECCENTRICITY": 0.0001362,
    "INCLINATION": 53.2168,
    "RA_OF_ASC_NODE": 180.7272,
    "ARG_OF_PERICENTER": 67.0387,
    "MEAN_ANOMALY": 293.0749,
    "EPHEMERIS_TYPE": 0,
    "CLASSIFICATION_TYPE": "U",
    "NORAD_CAT_ID": 53287,
    "ELEMENT_SET_NO": 999,
    "REV_AT_EPOCH": 3181,
    "BSTAR": 0.001292,
    "MEAN_MOTION_DOT": 0.00020347,
    "MEAN_MOTION_DDOT": 0
  },
  {
    "OBJECT_NAME": "STARLINK-4162",
    "OBJECT_ID": "2022-086AY",
    "EPOCH": "2023-02-11T18:06:37.459008",
    "MEAN_MOTION": 15.08851825,
    "ECCENTRICITY": 9.34e-5,
    "INCLINATION": 53.2184,
    "RA_OF_ASC_NODE": 180.6747,
    "ARG_OF_PERICENTER": 144.2873,
    "MEAN_ANOMALY": 215.8182,
    "EPHEMERIS_TYPE": 0,
    "CLASSIFICATION_TYPE": "U",
    "NORAD_CAT_ID": 53288,
    "ELEMENT_SET_NO": 999,
    "REV_AT_EPOCH": 3181,
    "BSTAR": -6.6926e-5,
    "MEAN_MOTION_DOT": -1.353e-5,
    "MEAN_MOTION_DDOT": 0
  },
  {
    "OBJECT_NAME": "STARLINK-4176",
    "OBJECT_ID": "2022-086AZ",
    "EPOCH": "2023-02-11T18:48:24.869952",
    "MEAN_MOTION": 15.08855973,
    "ECCENTRICITY": 0.0001539,
    "INCLINATION": 53.22,
    "RA_OF_ASC_NODE": 175.6552,
    "ARG_OF_PERICENTER": 182.613,
    "MEAN_ANOMALY": 177.4855,
    "EPHEMERIS_TYPE": 0,
    "CLASSIFICATION_TYPE": "U",
    "NORAD_CAT_ID": 53289,
    "ELEMENT_SET_NO": 999,
    "REV_AT_EPOCH": 3188,
    "BSTAR": 0.00017116,
    "MEAN_MOTION_DOT": 2.438e-5,
    "MEAN_MOTION_DDOT": 0
  },
  {
    "OBJECT_NAME": "STARLINK-4149",
    "OBJECT_ID": "2022-086BA",
    "EPOCH": "2023-02-11T17:56:05.578656",
    "MEAN_MOTION": 15.08733323,
    "ECCENTRICITY": 0.0002332,
    "INCLINATION": 53.2196,
    "RA_OF_ASC_NODE": 180.718,
    "ARG_OF_PERICENTER": 77.4656,
    "MEAN_ANOMALY": 282.6597,
    "EPHEMERIS_TYPE": 0,
    "CLASSIFICATION_TYPE": "U",
    "NORAD_CAT_ID": 53290,
    "ELEMENT_SET_NO": 999,
    "REV_AT_EPOCH": 3181,
    "BSTAR": 0.0017222,
    "MEAN_MOTION_DOT": 0.00027147,
    "MEAN_MOTION_DDOT": 0
  },
  {
    "OBJECT_NAME": "STARLINK-4166",
    "OBJECT_ID": "2022-086BB",
    "EPOCH": "2023-02-11T18:00:41.094432",
    "MEAN_MOTION": 15.08852264,
    "ECCENTRICITY": 0.0001222,
    "INCLINATION": 53.2176,
    "RA_OF_ASC_NODE": 175.4582,
    "ARG_OF_PERICENTER": 81.0569,
    "MEAN_ANOMALY": 279.0562,
    "EPHEMERIS_TYPE": 0,
    "CLASSIFICATION_TYPE": "U",
    "NORAD_CAT_ID": 53291,
    "ELEMENT_SET_NO": 999,
    "REV_AT_EPOCH": 3188,
    "BSTAR": 0.00031884,
    "MEAN_MOTION_DOT": 4.792e-5,
    "MEAN_MOTION_DDOT": 0
  },
  {
    "OBJECT_NAME": "STARLINK-4159",
    "OBJECT_ID": "2022-086BC",
    "EPOCH": "2023-02-11T16:11:26.882016",
    "MEAN_MOTION": 15.08829029,
    "ECCENTRICITY": 8.73e-5,
    "INCLINATION": 53.2174,
    "RA_OF_ASC_NODE": 181.0417,
    "ARG_OF_PERICENTER": 67.4374,
    "MEAN_ANOMALY": 292.671,
    "EPHEMERIS_TYPE": 0,
    "CLASSIFICATION_TYPE": "U",
    "NORAD_CAT_ID": 53292,
    "ELEMENT_SET_NO": 999,
    "REV_AT_EPOCH": 3180,
    "BSTAR": -4.1371e-5,
    "MEAN_MOTION_DOT": -9.46e-6,
    "MEAN_MOTION_DDOT": 0
  },
  {
    "OBJECT_NAME": "STARLINK-4148",
    "OBJECT_ID": "2022-086BD",
    "EPOCH": "2023-02-11T18:41:08.016864",
    "MEAN_MOTION": 15.08842477,
    "ECCENTRICITY": 0.0001861,
    "INCLINATION": 53.2175,
    "RA_OF_ASC_NODE": 170.5707,
    "ARG_OF_PERICENTER": 119.3116,
    "MEAN_ANOMALY": 240.8062,
    "EPHEMERIS_TYPE": 0,
    "CLASSIFICATION_TYPE": "U",
    "NORAD_CAT_ID": 53293,
    "ELEMENT_SET_NO": 999,
    "REV_AT_EPOCH": 3195,
    "BSTAR": -1.8766e-5,
    "MEAN_MOTION_DOT": -5.87e-6,
    "MEAN_MOTION_DDOT": 0
  },
  {
    "OBJECT_NAME": "STARLINK-4146",
    "OBJECT_ID": "2022-086BE",
    "EPOCH": "2023-02-11T17:34:46.708320",
    "MEAN_MOTION": 15.10491526,
    "ECCENTRICITY": 6.58e-5,
    "INCLINATION": 53.2192,
    "RA_OF_ASC_NODE": 170.6452,
    "ARG_OF_PERICENTER": 69.1828,
    "MEAN_ANOMALY": 290.9236,
    "EPHEMERIS_TYPE": 0,
    "CLASSIFICATION_TYPE": "U",
    "NORAD_CAT_ID": 53294,
    "ELEMENT_SET_NO": 999,
    "REV_AT_EPOCH": 3199,
    "BSTAR": 0.00010841,
    "MEAN_MOTION_DOT": 1.514e-5,
    "MEAN_MOTION_DDOT": 0
  },
  {
    "OBJECT_NAME": "2022-087A",
    "OBJECT_ID": "2022-087A",
    "EPOCH": "2023-02-11T20:45:04.627296",
    "MEAN_MOTION": 15.24413045,
    "ECCENTRICITY": 0.0012341,
    "INCLINATION": 97.3815,
    "RA_OF_ASC_NODE": 119.0412,
    "ARG_OF_PERICENTER": 301.0653,
    "MEAN_ANOMALY": 193.5101,
    "EPHEMERIS_TYPE": 0,
    "CLASSIFICATION_TYPE": "U",
    "NORAD_CAT_ID": 53299,
    "ELEMENT_SET_NO": 999,
    "REV_AT_EPOCH": 3038,
    "BSTAR": 0.00068576,
    "MEAN_MOTION_DOT": 0.00016801,
    "MEAN_MOTION_DDOT": 0
  },
  {
    "OBJECT_NAME": "2022-087B",
    "OBJECT_ID": "2022-087B",
    "EPOCH": "2023-02-11T20:06:33.244128",
    "MEAN_MOTION": 15.24210612,
    "ECCENTRICITY": 0.0013462,
    "INCLINATION": 97.3822,
    "RA_OF_ASC_NODE": 119.083,
    "ARG_OF_PERICENTER": 314.177,
    "MEAN_ANOMALY": 182.8789,
    "EPHEMERIS_TYPE": 0,
    "CLASSIFICATION_TYPE": "U",
    "NORAD_CAT_ID": 53300,
    "ELEMENT_SET_NO": 999,
    "REV_AT_EPOCH": 3038,
    "BSTAR": 0.00060833,
    "MEAN_MOTION_DOT": 0.00014808,
    "MEAN_MOTION_DDOT": 0
  }
]
