STARLINK-4172           
1 53284U 22086AU  23042.83556714  .00010147  00000+0  65437-3 0  9990
2 53284  53.2154 180.3193 0001093  94.0169 266.0948 15.08857679 31837
STARLINK-4173           
1 53285U 22086AV  23042.81717353  .00014539  00000+0  92973-3 0  9991
2 53285  53.2172 180.4028 0001232 103.8435 256.2694 15.08838713 31822
STARLINK-4165           
1 53286U 22086AW  23042.75829311  .00000736  00000+0  64328-4 0  9991
2 53286  53.2176 180.6646 0001041  97.9998 262.1113 15.08839471 31813
STARLINK-4107           
1 53287U 22086AX  23042.74357083  .00020347  00000+0  12920-2 0  9992
2 53287  53.2168 180.7272 0001362  67.0387 293.0749 15.08863206 31818
STARLINK-4162           
1 53288U 22086AY  23042.75460022 -.00001353  00000+0 -66926-4 0  9997
2 53288  53.2184 180.6747 0000934 144.2873 215.8182 15.08851825 31812
STARLINK-4176           
1 53289U 22086AZ  23042.78362118  .00002438  00000+0  17116-3 0  9997
2 53289  53.2200 175.6552 0001539 182.6130 177.4855 15.08855973 31889
STARLINK-4149           
1 53290U 22086BA  23042.74728679  .00027147  00000+0  17222-2 0  9994
2 53290  53.2196 180.7180 0002332  77.4656 282.6597 15.08733323 31814
STARLINK-4166           
1 53291U 22086BB  23042.75047563  .00004792  00000+0  31884-3 0  9994
2 53291  53.2176 175.4582 0001222  81.0569 279.0562 15.08852264 31886
STARLINK-4159           
1 53292U 22086BC  23042.67461669 -.00000946  00000+0 -41371-4 0  9995
2 53292  53.2174 181.0417 0000873  67.4374 292.6710 15.08829029 31809
STARLINK-4148           
1 53293U 22086BD  23042.77856501 -.00000587  00000+0 -18766-4 0  9993
2 53293  53.2175 170.5707 0001861 119.3116 240.8062 15.08842477 31958
STARLINK-4146           
1 53294U 22086BE  23042.73248505  .00001514  00000+0  10841-3 0  9993
2 53294  53.2192 170.6452 0000658  69.1828 290.9236 15.10491526 31992
2022-087A               
1 53299U 22087A   23042.86463689  .00016801  00000+0  68576-3 0  9998
2 53299  97.3815 119.0412 0012341 301.0653 193.5101 15.24413045 30383
2022-087B               
1 53300U 22087B   23042.83788477  .00014808  00000+0  60833-3 0  9996
2 53300  97.3822 119.0830 0013462 314.1770 182.8789 15.24210612 30386
